{
  "type": "FeatureCollection",
  "features": [
    {
      "type": "Feature",
      "properties": {
        "norad_id": 36585,
        "name": "GPS BIIF-1  (PRN 25)",
        "group": "gnss",
        "lat": -8.74567911620772,
        "lon": -150.6341831880954,
        "alt_km": 20098.776978121452,
        "timestamp": "2025-12-21T22:41:41.702950+00:00",
        "meta_object_name": "GPS BIIF-1  (PRN 25)",
        "meta_object_id": "2010-022A",
        "meta_epoch": "2025-12-21T05:24:38.676096",
        "meta_mean_motion": 2.00553675,
        "meta_eccentricity": 0.0126455,
        "meta_inclination": 54.2988,
        "meta_ra_of_asc_node": 215.7316,
        "meta_arg_of_pericenter": 65.181,
        "meta_mean_anomaly": 125.5392,
        "meta_ephemeris_type": 0,
        "meta_classification_type": "U",
        "meta_norad_cat_id": 36585,
        "meta_element_set_no": 999,
        "meta_rev_at_epoch": 11402,
        "meta_bstar": 0,
        "meta_mean_motion_dot": 7.7e-07,
        "meta_mean_motion_ddot": 0,
        "tle_line1": "1 36585U 10022A   25355.22544764  .00000077  00000+0  00000+0 0  9998",
        "tle_line2": "2 36585  54.2988 215.7316 0126455  65.1810 125.5392  2.00553675114022"
      },
      "geometry": {
        "type": "Point",
        "coordinates": [
          -150.6341831880954,
          -8.74567911620772
        ]
      }
    },
    {
      "type": "Feature",
      "properties": {
        "norad_id": 36828,
        "name": "BEIDOU-2 IGSO-1 (C06)",
        "group": "gnss",
        "lat": 11.98567322940524,
        "lon": 173.3464851366026,
        "alt_km": 35986.489261414106,
        "timestamp": "2025-12-21T22:41:41.702961+00:00",
        "meta_object_name": "BEIDOU-2 IGSO-1 (C06)",
        "meta_object_id": "2010-036A",
        "meta_epoch": "2025-12-20T21:47:26.739168",
        "meta_mean_motion": 1.00282395,
        "meta_eccentricity": 0.0051798,
        "meta_inclination": 54.2882,
        "meta_ra_of_asc_node": 164.5739,
        "meta_arg_of_pericenter": 215.2932,
        "meta_mean_anomaly": 144.6604,
        "meta_ephemeris_type": 0,
        "meta_classification_type": "U",
        "meta_norad_cat_id": 36828,
        "meta_element_set_no": 999,
        "meta_rev_at_epoch": 5631,
        "meta_bstar": 0,
        "meta_mean_motion_dot": -5.5e-07,
        "meta_mean_motion_ddot": 0,
        "tle_line1": "1 36828U 10036A   25354.90794837 -.00000055  00000+0  00000+0 0  9992",
        "tle_line2": "2 36828  54.2882 164.5739 0051798 215.2932 144.6604  1.00282395 56317"
      },
      "geometry": {
        "type": "Point",
        "coordinates": [
          173.3464851366026,
          11.98567322940524
        ]
      }
    },
    {
      "type": "Feature",
      "properties": {
        "norad_id": 37210,
        "name": "BEIDOU-2 G4 (C04)",
        "group": "gnss",
        "lat": 1.0109985869349165,
        "lon": -128.773205359575,
        "alt_km": 35748.40377352179,
        "timestamp": "2025-12-21T22:41:41.702973+00:00",
        "meta_object_name": "BEIDOU-2 G4 (C04)",
        "meta_object_id": "2010-057A",
        "meta_epoch": "2025-12-21T13:57:28.384992",
        "meta_mean_motion": 1.00271972,
        "meta_eccentricity": 0.00104218,
        "meta_inclination": 3.2053,
        "meta_ra_of_asc_node": 69.9056,
        "meta_arg_of_pericenter": 193.0975,
        "meta_mean_anomaly": 196.8487,
        "meta_ephemeris_type": 0,
        "meta_classification_type": "U",
        "meta_norad_cat_id": 37210,
        "meta_element_set_no": 999,
        "meta_rev_at_epoch": 5551,
        "meta_bstar": 0,
        "meta_mean_motion_dot": -9.1e-07,
        "meta_mean_motion_ddot": 0,
        "tle_line1": "1 37210U 10057A   25355.58157853 -.00000091  00000+0  00000+0 0  9997",
        "tle_line2": "2 37210   3.2053  69.9056 0010421 193.0975 196.8487  1.00271972 55513"
      },
      "geometry": {
        "type": "Point",
        "coordinates": [
          -128.773205359575,
          1.0109985869349165
        ]
      }
    },
    {
      "type": "Feature",
      "properties": {
        "norad_id": 37256,
        "name": "BEIDOU-2 IGSO-2 (C07)",
        "group": "gnss",
        "lat": -47.71686363193539,
        "lon": 177.3114148074968,
        "alt_km": 35654.65074003522,
        "timestamp": "2025-12-21T22:41:41.702985+00:00",
        "meta_object_name": "BEIDOU-2 IGSO-2 (C07)",
        "meta_object_id": "2010-068A",
        "meta_epoch": "2025-12-21T13:27:35.185824",
        "meta_mean_motion": 1.00283695,
        "meta_eccentricity": 0.00485105,
        "meta_inclination": 47.8698,
        "meta_ra_of_asc_node": 274.0408,
        "meta_arg_of_pericenter": 216.3833,
        "meta_mean_anomaly": 269.8083,
        "meta_ephemeris_type": 0,
        "meta_classification_type": "U",
        "meta_norad_cat_id": 37256,
        "meta_element_set_no": 999,
        "meta_rev_at_epoch": 5501,
        "meta_bstar": 0,
        "meta_mean_motion_dot": -1.86e-06,
        "meta_mean_motion_ddot": 0,
        "tle_line1": "1 37256U 10068A   25355.56082391 -.00000186  00000+0  00000+0 0  9996",
        "tle_line2": "2 37256  47.8698 274.0408 0048510 216.3833 269.8083  1.00283695 55017"
      },
      "geometry": {
        "type": "Point",
        "coordinates": [
          177.3114148074968,
          -47.71686363193539
        ]
      }
    },
    {
      "type": "Feature",
      "properties": {
        "norad_id": 37384,
        "name": "BEIDOU-2 IGSO-3 (C08)",
        "group": "gnss",
        "lat": 37.66318027145951,
        "lon": -162.19252304903918,
        "alt_km": 35690.14083689692,
        "timestamp": "2025-12-21T22:41:41.702997+00:00",
        "meta_object_name": "BEIDOU-2 IGSO-3 (C08)",
        "meta_object_id": "2011-013A",
        "meta_epoch": "2025-12-21T13:47:18.522816",
        "meta_mean_motion": 1.00268792,
        "meta_eccentricity": 0.00353792,
        "meta_inclination": 62.1546,
        "meta_ra_of_asc_node": 41.8324,
        "meta_arg_of_pericenter": 187.6182,
        "meta_mean_anomaly": 175.1134,
        "meta_ephemeris_type": 0,
        "meta_classification_type": "U",
        "meta_norad_cat_id": 37384,
        "meta_element_set_no": 999,
        "meta_rev_at_epoch": 5388,
        "meta_bstar": 0,
        "meta_mean_motion_dot": -1.61e-06,
        "meta_mean_motion_ddot": 0,
        "tle_line1": "1 37384U 11013A   25355.57451994 -.00000161  00000+0  00000+0 0  9992",
        "tle_line2": "2 37384  62.1546  41.8324 0035379 187.6182 175.1134  1.00268792 53884"
      },
      "geometry": {
        "type": "Point",
        "coordinates": [
          -162.19252304903918,
          37.66318027145951
        ]
      }
    },
    {
      "type": "Feature",
      "properties": {
        "norad_id": 37605,
        "name": "GSAT-8 (GAGAN/PRN 127)",
        "group": "gnss",
        "lat": 1.143460251506305,
        "lon": 126.17430823297046,
        "alt_km": 35816.427947743105,
        "timestamp": "2025-12-21T22:41:41.703008+00:00",
        "meta_object_name": "GSAT-8 (GAGAN/PRN 127)",
        "meta_object_id": "2011-022A",
        "meta_epoch": "2025-12-21T03:11:14.180064",
        "meta_mean_motion": 1.00270422,
        "meta_eccentricity": 0.00088018,
        "meta_inclination": 1.6701,
        "meta_ra_of_asc_node": 84.1097,
        "meta_arg_of_pericenter": 186.106,
        "meta_mean_anomaly": 282.6239,
        "meta_ephemeris_type": 0,
        "meta_classification_type": "U",
        "meta_norad_cat_id": 37605,
        "meta_element_set_no": 999,
        "meta_rev_at_epoch": 5143,
        "meta_bstar": 0,
        "meta_mean_motion_dot": 1.07e-06,
        "meta_mean_motion_ddot": 0,
        "tle_line1": "1 37605U 11022A   25355.13280301  .00000107  00000+0  00000+0 0  9991",
        "tle_line2": "2 37605   1.6701  84.1097 0008801 186.1060 282.6239  1.00270422 51439"
      },
      "geometry": {
        "type": "Point",
        "coordinates": [
          126.17430823297046,
          1.143460251506305
        ]
      }
    },
    {
      "type": "Feature",
      "properties": {
        "norad_id": 37763,
        "name": "BEIDOU-2 IGSO-4 (C09)",
        "group": "gnss",
        "lat": -0.06650097005903541,
        "lon": 167.20487383204858,
        "alt_km": 36181.029779742865,
        "timestamp": "2025-12-21T22:41:41.703027+00:00",
        "meta_object_name": "BEIDOU-2 IGSO-4 (C09)",
        "meta_object_id": "2011-038A",
        "meta_epoch": "2025-12-21T10:06:26.864064",
        "meta_mean_motion": 1.00280083,
        "meta_eccentricity": 0.01491557,
        "meta_inclination": 54.5854,
        "meta_ra_of_asc_node": 167.2693,
        "meta_arg_of_pericenter": 230.0944,
        "meta_mean_anomaly": 299.1265,
        "meta_ephemeris_type": 0,
        "meta_classification_type": "U",
        "meta_norad_cat_id": 37763,
        "meta_element_set_no": 999,
        "meta_rev_at_epoch": 5286,
        "meta_bstar": 0,
        "meta_mean_motion_dot": 5.9e-07,
        "meta_mean_motion_ddot": 0,
        "tle_line1": "1 37763U 11038A   25355.42114426  .00000059  00000+0  00000+0 0  9995",
        "tle_line2": "2 37763  54.5854 167.2693 0149155 230.0944 299.1265  1.00280083 52867"
      },
      "geometry": {
        "type": "Point",
        "coordinates": [
          167.20487383204858,
          -0.06650097005903541
        ]
      }
    }
  ]
}